{"type": "FeatureCollection", "features": [ {"type": "Feature", "properties": {"norad_id": 51444, "name": "CSG-2", "group": "resource", "lat": 54.02124585122119, "lon": 150.24108182888708, "alt_km": 616.5610582946574, "timestamp": "2025-12-05T19:30:25.225062+00:00", "meta": {"OBJECT_NAME": "CSG-2", "OBJECT_ID": "2022-008A", "EPOCH": "2025-12-05T07:55:08.249376", "MEAN_MOTION": 14.82152386, "ECCENTRICITY": 0.00015046, "INCLINATION": 97.8807, "RA_OF_ASC_NODE": 160.7648, "ARG_OF_PERICENTER": 88.9172, "MEAN_ANOMALY": 271.2214, "EPHEMERIS_TYPE": 0, "CLASSIFICATION_TYPE": "U", "NORAD_CAT_ID": 51444, "ELEMENT_SET_NO": 999, "REV_AT_EPOCH": 20787, "BSTAR": 0.00013691375, "MEAN_MOTION_DOT": 1.038e-05, "MEAN_MOTION_DDOT": 0}, "tle": {"line1": "1 51444U 22008A   25339.32995659  .00001038  00000+0  13691-3 0  9994", "line2": "2 51444  97.8807 160.7648 0001504  88.9172 271.2214 14.82152386207879"}}, "geometry": {"type": "Point", "coordinates": [150.24108182888708, 54.02124585122119]}}, {"type": "Feature", "properties": {"norad_id": 52912, "name": "GAOFEN-12 03", "group": "resource", "lat": 34.71257960178494, "lon": -138.16222490742476, "alt_km": 627.1077421042346, "timestamp": "2025-12-05T19:30:25.225072+00:00", "meta": {"OBJECT_NAME": "GAOFEN-12 03", "OBJECT_ID": "2022-069A", "EPOCH": "2025-12-05T06:21:51.920928", "MEAN_MOTION": 14.7958085, "ECCENTRICITY": 0.00023093, "INCLINATION": 97.8488, "RA_OF_ASC_NODE": 226.7866, "ARG_OF_PERICENTER": 74.9077, "MEAN_ANOMALY": 285.239, "EPHEMERIS_TYPE": 0, "CLASSIFICATION_TYPE": "U", "NORAD_CAT_ID": 52912, "ELEMENT_SET_NO": 999, "REV_AT_EPOCH": 18593, "BSTAR": 0.00031737452, "MEAN_MOTION_DOT": 2.326e-05, "MEAN_MOTION_DDOT": 0}, "tle": {"line1": "1 52912U 22069A   25339.26518427  .00002326  00000+0  31737-3 0  9991", "line2": "2 52912  97.8488 226.7866 0002309  74.9077 285.2390 14.79580850185932"}}, "geometry": {"type": "Point", "coordinates": [-138.16222490742476, 34.71257960178494]}}, {"type": "Feature", "properties": {"norad_id": 54754, "name": "SWOT", "group": "resource", "lat": -5.6388088736642, "lon": 117.58484211014246, "alt_km": 896.4972539902346, "timestamp": "2025-12-05T19:30:25.225082+00:00", "meta": {"OBJECT_NAME": "SWOT", "OBJECT_ID": "2022-173A", "EPOCH": "2025-12-05T06:37:08.001120", "MEAN_MOTION": 14.00172925, "ECCENTRICITY": 3.403e-05, "INCLINATION": 77.61, "RA_OF_ASC_NODE": 297.0659, "ARG_OF_PERICENTER": 134.7528, "MEAN_ANOMALY": 225.3652, "EPHEMERIS_TYPE": 0, "CLASSIFICATION_TYPE": "U", "NORAD_CAT_ID": 54754, "ELEMENT_SET_NO": 999, "REV_AT_EPOCH": 15201, "BSTAR": 0.0001078529, "MEAN_MOTION_DOT": 1.57e-06, "MEAN_MOTION_DDOT": 0}, "tle": {"line1": "1 54754U 22173A   25339.27578705  .00000157  00000+0  10785-3 0  9999", "line2": "2 54754  77.6100 297.0659 0000340 134.7528 225.3652 14.00172925152018"}}, "geometry": {"type": "Point", "coordinates": [117.58484211014246, -5.6388088736642]}}, {"type": "Feature", "properties": {"norad_id": 57654, "name": "GAOFEN-12 04", "group": "resource", "lat": -22.464898264892174, "lon": 72.3784354860704, "alt_km": 636.4669259482098, "timestamp": "2025-12-05T19:30:25.225092+00:00", "meta": {"OBJECT_NAME": "GAOFEN-12 04", "OBJECT_ID": "2023-123A", "EPOCH": "2025-12-05T07:14:00.934944", "MEAN_MOTION": 14.79665434, "ECCENTRICITY": 0.00014594, "INCLINATION": 97.912, "RA_OF_ASC_NODE": 255.1715, "ARG_OF_PERICENTER": 72.9787, "MEAN_ANOMALY": 287.1585, "EPHEMERIS_TYPE": 0, "CLASSIFICATION_TYPE": "U", "NORAD_CAT_ID": 57654, "ELEMENT_SET_NO": 999, "REV_AT_EPOCH": 12395, "BSTAR": 0.00041312117, "MEAN_MOTION_DOT": 3.049e-05, "MEAN_MOTION_DDOT": 0}, "tle": {"line1": "1 57654U 23123A   25339.30139971  .00003049  00000+0  41312-3 0  9992", "line2": "2 57654  97.9120 255.1715 0001459  72.9787 287.1585 14.79665434123957"}}, "geometry": {"type": "Point", "coordinates": [72.3784354860704, -22.464898264892174]}}, {"type": "Feature", "properties": {"norad_id": 59065, "name": "PARS 1", "group": "resource", "lat": 23.323240840717656, "lon": 133.83983741401764, "alt_km": 439.72271352562075, "timestamp": "2025-12-05T19:30:25.225102+00:00", "meta": {"OBJECT_NAME": "PARS 1", "OBJECT_ID": "2024-039Q", "EPOCH": "2025-12-05T06:21:43.508160", "MEAN_MOTION": 15.40726111, "ECCENTRICITY": 0.00126938, "INCLINATION": 97.4624, "RA_OF_ASC_NODE": 310.041, "ARG_OF_PERICENTER": 94.508, "MEAN_ANOMALY": 265.7617, "EPHEMERIS_TYPE": 0, "CLASSIFICATION_TYPE": "U", "NORAD_CAT_ID": 59065, "ELEMENT_SET_NO": 999, "REV_AT_EPOCH": 9873, "BSTAR": 0.00047125939, "MEAN_MOTION_DOT": 0.00019248, "MEAN_MOTION_DDOT": 0}, "tle": {"line1": "1 59065U 24039Q   25339.26508690  .00019248  00000+0  47126-3 0  9997", "line2": "2 59065  97.4624 310.0410 0012693  94.5080 265.7617 15.40726111 98734"}}, "geometry": {"type": "Point", "coordinates": [133.83983741401764, 23.323240840717656]}}, {"type": "Feature", "properties": {"norad_id": 59371, "name": "RESURS-P 4", "group": "resource", "lat": 21.7996744725952, "lon": 109.20513145755035, "alt_km": 470.08042137016855, "timestamp": "2025-12-05T19:30:25.225112+00:00", "meta": {"OBJECT_NAME": "RESURS-P 4", "OBJECT_ID": "2024-061A", "EPOCH": "2025-12-05T07:50:49.104672", "MEAN_MOTION": 15.31996297, "ECCENTRICITY": 0.0002024, "INCLINATION": 97.2537, "RA_OF_ASC_NODE": 285.8092, "ARG_OF_PERICENTER": 54.8566, "MEAN_ANOMALY": 305.2865, "EPHEMERIS_TYPE": 0, "CLASSIFICATION_TYPE": "U", "NORAD_CAT_ID": 59371, "ELEMENT_SET_NO": 999, "REV_AT_EPOCH": 9407, "BSTAR": 0.00023195356, "MEAN_MOTION_DOT": 7.09e-05, "MEAN_MOTION_DDOT": 0}, "tle": {"line1": "1 59371U 24061A   25339.32695723  .00007090  00000+0  23195-3 0  9995", "line2": "2 59371  97.2537 285.8092 0002024  54.8566 305.2865 15.31996297 94077"}}, "geometry": {"type": "Point", "coordinates": [109.20513145755035, 21.7996744725952]}}, {"type": "Feature", "properties": {"norad_id": 59625, "name": "LEGION 1", "group": "resource", "lat": 50.94805068981093, "lon": 45.13667019767171, "alt_km": 510.8279740982589, "timestamp": "2025-12-05T19:30:25.225122+00:00", "meta": {"OBJECT_NAME": "LEGION 1", "OBJECT_ID": "2024-081A", "EPOCH": "2025-12-05T06:36:38.553408", "MEAN_MOTION": 15.16367704, "ECCENTRICITY": 0.000454, "INCLINATION": 97.5228, "RA_OF_ASC_NODE": 53.9785, "ARG_OF_PERICENTER": 348.4225, "MEAN_ANOMALY": 11.6902, "EPHEMERIS_TYPE": 0, "CLASSIFICATION_TYPE": "U", "NORAD_CAT_ID": 59625, "ELEMENT_SET_NO": 999, "REV_AT_EPOCH": 8814, "BSTAR": 0.00049345257, "MEAN_MOTION_DOT": 9.517e-05, "MEAN_MOTION_DDOT": 0}, "tle": {"line1": "1 59625U 24081A   25339.27544622  .00009517  00000+0  49345-3 0  9995", "line2": "2 59625  97.5228  53.9785 0004540 348.4225  11.6902 15.16367704 88140"}}, "geometry": {"type": "Point", "coordinates": [45.13667019767171, 50.94805068981093]}}, {"type": "Feature", "properties": {"norad_id": 59626, "name": "LEGION 2", "group": "resource", "lat": -50.45825226741215, "lon": -134.61320477568594, "alt_km": 523.8068580292156, "timestamp": "2025-12-05T19:30:25.225133+00:00", "meta": {"OBJECT_NAME": "LEGION 2", "OBJECT_ID": "2024-081B", "EPOCH": "2025-12-05T05:49:16.164480", "MEAN_MOTION": 15.16376685, "ECCENTRICITY": 0.00061389, "INCLINATION": 97.5229, "RA_OF_ASC_NODE": 54.0326, "ARG_OF_PERICENTER": 324.1017, "MEAN_ANOMALY": 35.9802, "EPHEMERIS_TYPE": 0, "CLASSIFICATION_TYPE": "U", "NORAD_CAT_ID": 59626, "ELEMENT_SET_NO": 999, "REV_AT_EPOCH": 8814, "BSTAR": 0.00050086932, "MEAN_MOTION_DOT": 9.665e-05, "MEAN_MOTION_DDOT": 0}, "tle": {"line1": "1 59626U 24081B   25339.24254820  .00009665  00000+0  50087-3 0  9990", "line2": "2 59626  97.5229  54.0326 0006138 324.1017  35.9802 15.16376685 88146"}}, "geometry": {"type": "Point", "coordinates": [-134.61320477568594, -50.45825226741215]}}, {"type": "Feature", "properties": {"norad_id": 60182, "name": "ALOS-4 (DAICHI-4)", "group": "resource", "lat": 81.94464436081658, "lon": -4.976538289847088, "alt_km": 622.5849443544548, "timestamp": "2025-12-05T19:30:25.225143+00:00", "meta": {"OBJECT_NAME": "ALOS-4 (DAICHI-4)", "OBJECT_ID": "2024-123A", "EPOCH": "2025-12-04T20:23:01.538304", "MEAN_MOTION": 14.79480707, "ECCENTRICITY": 0.00013181, "INCLINATION": 97.9228, "RA_OF_ASC_NODE": 73.8084, "ARG_OF_PERICENTER": 99.0805, "MEAN_ANOMALY": 261.0556, "EPHEMERIS_TYPE": 0, "CLASSIFICATION_TYPE": "U", "NORAD_CAT_ID": 60182, "ELEMENT_SET_NO": 999, "REV_AT_EPOCH": 7714, "BSTAR": -1.2762059e-05, "MEAN_MOTION_DOT": -1.47e-06, "MEAN_MOTION_DDOT": 0}, "tle": {"line1": "1 60182U 24123A   25338.84932336 -.00000147  00000+0 -12762-4 0  9993", "line2": "2 60182  97.9228  73.8084 0001318  99.0805 261.0556 14.79480707 77141"}}, "geometry": {"type": "Point", "coordinates": [-4.976538289847088, 81.94464436081658]}}, {"type": "Feature", "properties": {"norad_id": 60452, "name": "LEGION 3", "group": "resource", "lat": -35.15959549387079, "lon": -147.92463549744113, "alt_km": 519.6831572681967, "timestamp": "2025-12-05T19:30:25.225154+00:00", "meta": {"OBJECT_NAME": "LEGION 3", "OBJECT_ID": "2024-146A", "EPOCH": "2025-12-05T07:24:18.416736", "MEAN_MOTION": 15.15641012, "ECCENTRICITY": 0.00139889, "INCLINATION": 45.0024, "RA_OF_ASC_NODE": 349.9662, "ARG_OF_PERICENTER": 156.9943, "MEAN_ANOMALY": 203.1564, "EPHEMERIS_TYPE": 0, "CLASSIFICATION_TYPE": "U", "NORAD_CAT_ID": 60452, "ELEMENT_SET_NO": 999, "REV_AT_EPOCH": 7260, "BSTAR": 0.00051155787, "MEAN_MOTION_DOT": 9.661e-05, "MEAN_MOTION_DDOT": 0}, "tle": {"line1": "1 60452U 24146A   25339.30854649  .00009661  00000+0  51156-3 0  9997", "line2": "2 60452  45.0024 349.9662 0013988 156.9943 203.1564 15.15641012 72601"}}, "geometry": {"type": "Point", "coordinates": [-147.92463549744113, -35.15959549387079]}}]}